[{"insee_code": "39576", "city_code": "val sonnette", "zip_code": "39190", "label": "val sonnette", "latitude": "46.602897042", "longitude": "5.464680776", "department_name": "jura", "department_number": "39", "region_name": "bourgogne-franche-comt\u00e9", "region_geojson_name": "Bourgogne-Franche-Comt\u00e9"}, {"insee_code": "39577", "city_code": "vincent froideville", "zip_code": "39230", "label": "vincent froideville", "latitude": "46.79367224", "longitude": "5.482371739", "department_name": "jura", "department_number": "39", "region_name": "bourgogne-franche-comt\u00e9", "region_geojson_name": "Bourgogne-Franche-Comt\u00e9"}, {"insee_code": "39583", "city_code": "vosbles valfin", "zip_code": "39240", "label": "vosbles valfin", "latitude": "46.348400035", "longitude": "5.52189486", "department_name": "jura", "department_number": "39", "region_name": "bourgogne-franche-comt\u00e9", "region_geojson_name": "Bourgogne-Franche-Comt\u00e9"}, {"insee_code": "58006", "city_code": "anlezy", "zip_code": "58270", "label": "anlezy", "latitude": "46.966560312", "longitude": "3.498985277", "department_name": "ni\u00e8vre", "department_number": "58", "region_name": "bourgogne-franche-comt\u00e9", "region_geojson_name": "Bourgogne-Franche-Comt\u00e9"}, {"insee_code": "58008", "city_code": "anthien", "zip_code": "58800", "label": "anthien", "latitude": "47.308662574", "longitude": "3.724871048", "department_name": "ni\u00e8vre", "department_number": "58", "region_name": "bourgogne-franche-comt\u00e9", "region_geojson_name": "Bourgogne-Franche-Comt\u00e9"}, {"insee_code": "58010", "city_code": "arleuf", "zip_code": "58430", "label": "arleuf", "latitude": "47.040464565", "longitude": "4.015692994", "department_name": "ni\u00e8vre", "department_number": "58", "region_name": "bourgogne-franche-comt\u00e9", "region_geojson_name": "Bourgogne-Franche-Comt\u00e9"}, {"insee_code": "58015", "city_code": "asnan", "zip_code": "58420", "label": "asnan", "latitude": "47.310372331", "longitude": "3.5523411510000003", "department_name": "ni\u00e8vre", "department_number": "58", "region_name": "bourgogne-franche-comt\u00e9", "region_geojson_name": "Bourgogne-Franche-Comt\u00e9"}, {"insee_code": "58017", "city_code": "aunay en bazois", "zip_code": "58110", "label": "aunay en bazois", "latitude": "47.124134471", "longitude": "3.719630112", "department_name": "ni\u00e8vre", "department_number": "58", "region_name": "bourgogne-franche-comt\u00e9", "region_geojson_name": "Bourgogne-Franche-Comt\u00e9"}, {"insee_code": "58030", "city_code": "biches", "zip_code": "58110", "label": "biches", "latitude": "46.993703901", "longitude": "3.654343187", "department_name": "ni\u00e8vre", "department_number": "58", "region_name": "bourgogne-franche-comt\u00e9", "region_geojson_name": "Bourgogne-Franche-Comt\u00e9"}, {"insee_code": "58031", "city_code": "billy chevannes", "zip_code": "58270", "label": "billy chevannes", "latitude": "47.011971519", "longitude": "3.461879934", "department_name": "ni\u00e8vre", "department_number": "58", "region_name": "bourgogne-franche-comt\u00e9", "region_geojson_name": "Bourgogne-Franche-Comt\u00e9"}, {"insee_code": "58034", "city_code": "blismes", "zip_code": "58120", "label": "blismes", "latitude": "47.122483237", "longitude": "3.82148616", "department_name": "ni\u00e8vre", "department_number": "58", "region_name": "bourgogne-franche-comt\u00e9", "region_geojson_name": "Bourgogne-Franche-Comt\u00e9"}, {"insee_code": "58039", "city_code": "breves", "zip_code": "58530", "label": "breves", "latitude": "47.429737821", "longitude": "3.624267859", "department_name": "ni\u00e8vre", "department_number": "58", "region_name": "bourgogne-franche-comt\u00e9", "region_geojson_name": "Bourgogne-Franche-Comt\u00e9"}, {"insee_code": "58051", "city_code": "challuy", "zip_code": "58000", "label": "challuy", "latitude": "46.94196697", "longitude": "3.140253373", "department_name": "ni\u00e8vre", "department_number": "58", "region_name": "bourgogne-franche-comt\u00e9", "region_geojson_name": "Bourgogne-Franche-Comt\u00e9"}, {"insee_code": "58054", "city_code": "champlin", "zip_code": "58700", "label": "champlin", "latitude": "47.244720142", "longitude": "3.45042992", "department_name": "ni\u00e8vre", "department_number": "58", "region_name": "bourgogne-franche-comt\u00e9", "region_geojson_name": "Bourgogne-Franche-Comt\u00e9"}, {"insee_code": "58055", "city_code": "champvert", "zip_code": "58300", "label": "champvert", "latitude": "46.853200997", "longitude": "3.523436401", "department_name": "ni\u00e8vre", "department_number": "58", "region_name": "bourgogne-franche-comt\u00e9", "region_geojson_name": "Bourgogne-Franche-Comt\u00e9"}, {"insee_code": "58069", "city_code": "chaumot", "zip_code": "58800", "label": "chaumot", "latitude": "47.251871128", "longitude": "3.643272447", "department_name": "ni\u00e8vre", "department_number": "58", "region_name": "bourgogne-franche-comt\u00e9", "region_geojson_name": "Bourgogne-Franche-Comt\u00e9"}, {"insee_code": "58081", "city_code": "colmery", "zip_code": "58350", "label": "colmery", "latitude": "47.348513898", "longitude": "3.246722321", "department_name": "ni\u00e8vre", "department_number": "58", "region_name": "bourgogne-franche-comt\u00e9", "region_geojson_name": "Bourgogne-Franche-Comt\u00e9"}, {"insee_code": "58083", "city_code": "corbigny", "zip_code": "58800", "label": "corbigny", "latitude": "47.256108779", "longitude": "3.689402188", "department_name": "ni\u00e8vre", "department_number": "58", "region_name": "bourgogne-franche-comt\u00e9", "region_geojson_name": "Bourgogne-Franche-Comt\u00e9"}, {"insee_code": "58087", "city_code": "cossaye", "zip_code": "58300", "label": "cossaye", "latitude": "46.75584565", "longitude": "3.5098283500000003", "department_name": "ni\u00e8vre", "department_number": "58", "region_name": "bourgogne-franche-comt\u00e9", "region_geojson_name": "Bourgogne-Franche-Comt\u00e9"}, {"insee_code": "58098", "city_code": "dirol", "zip_code": "58190", "label": "dirol", "latitude": "47.31839342", "longitude": "3.643605188", "department_name": "ni\u00e8vre", "department_number": "58", "region_name": "bourgogne-franche-comt\u00e9", "region_geojson_name": "Bourgogne-Franche-Comt\u00e9"}, {"insee_code": "58099", "city_code": "dommartin", "zip_code": "58120", "label": "dommartin", "latitude": "47.071580028", "longitude": "3.845762646", "department_name": "ni\u00e8vre", "department_number": "58", "region_name": "bourgogne-franche-comt\u00e9", "region_geojson_name": "Bourgogne-Franche-Comt\u00e9"}, {"insee_code": "58108", "city_code": "empury", "zip_code": "58140", "label": "empury", "latitude": "47.347358725", "longitude": "3.822286786", "department_name": "ni\u00e8vre", "department_number": "58", "region_name": "bourgogne-franche-comt\u00e9", "region_geojson_name": "Bourgogne-Franche-Comt\u00e9"}, {"insee_code": "58110", "city_code": "epiry", "zip_code": "58800", "label": "epiry", "latitude": "47.17048431", "longitude": "3.731841261", "department_name": "ni\u00e8vre", "department_number": "58", "region_name": "bourgogne-franche-comt\u00e9", "region_geojson_name": "Bourgogne-Franche-Comt\u00e9"}, {"insee_code": "58121", "city_code": "garchizy", "zip_code": "58600", "label": "garchizy", "latitude": "47.043647776", "longitude": "3.09366001", "department_name": "ni\u00e8vre", "department_number": "58", "region_name": "bourgogne-franche-comt\u00e9", "region_geojson_name": "Bourgogne-Franche-Comt\u00e9"}, {"insee_code": "58137", "city_code": "lamenay sur loire", "zip_code": "58300", "label": "lamenay sur loire", "latitude": "46.74622068", "longitude": "3.572315444", "department_name": "ni\u00e8vre", "department_number": "58", "region_name": "bourgogne-franche-comt\u00e9", "region_geojson_name": "Bourgogne-Franche-Comt\u00e9"}, {"insee_code": "58145", "city_code": "lormes", "zip_code": "58140", "label": "lormes", "latitude": "47.289145913", "longitude": "3.825318823", "department_name": "ni\u00e8vre", "department_number": "58", "region_name": "bourgogne-franche-comt\u00e9", "region_geojson_name": "Bourgogne-Franche-Comt\u00e9"}, {"insee_code": "58146", "city_code": "lucenay les aix", "zip_code": "58380", "label": "lucenay les aix", "latitude": "46.698049547", "longitude": "3.49197907", "department_name": "ni\u00e8vre", "department_number": "58", "region_name": "bourgogne-franche-comt\u00e9", "region_geojson_name": "Bourgogne-Franche-Comt\u00e9"}, {"insee_code": "58151", "city_code": "la machine", "zip_code": "58260", "label": "la machine", "latitude": "46.891574846", "longitude": "3.462345119", "department_name": "ni\u00e8vre", "department_number": "58", "region_name": "bourgogne-franche-comt\u00e9", "region_geojson_name": "Bourgogne-Franche-Comt\u00e9"}, {"insee_code": "58164", "city_code": "mesves sur loire", "zip_code": "58400", "label": "mesves sur loire", "latitude": "47.230238077", "longitude": "3.00396493", "department_name": "ni\u00e8vre", "department_number": "58", "region_name": "bourgogne-franche-comt\u00e9", "region_geojson_name": "Bourgogne-Franche-Comt\u00e9"}, {"insee_code": "58165", "city_code": "metz le comte", "zip_code": "58190", "label": "metz le comte", "latitude": "47.393000619", "longitude": "3.63581637", "department_name": "ni\u00e8vre", "department_number": "58", "region_name": "bourgogne-franche-comt\u00e9", "region_geojson_name": "Bourgogne-Franche-Comt\u00e9"}, {"insee_code": "58166", "city_code": "mhere", "zip_code": "58140", "label": "mhere", "latitude": "47.194724629", "longitude": "3.860095553", "department_name": "ni\u00e8vre", "department_number": "58", "region_name": "bourgogne-franche-comt\u00e9", "region_geojson_name": "Bourgogne-Franche-Comt\u00e9"}, {"insee_code": "58169", "city_code": "moissy moulinot", "zip_code": "58190", "label": "moissy moulinot", "latitude": "47.327325796", "longitude": "3.707138721", "department_name": "ni\u00e8vre", "department_number": "58", "region_name": "bourgogne-franche-comt\u00e9", "region_geojson_name": "Bourgogne-Franche-Comt\u00e9"}, {"insee_code": "58173", "city_code": "montaron", "zip_code": "58250", "label": "montaron", "latitude": "46.876229584", "longitude": "3.74814841", "department_name": "ni\u00e8vre", "department_number": "58", "region_name": "bourgogne-franche-comt\u00e9", "region_geojson_name": "Bourgogne-Franche-Comt\u00e9"}, {"insee_code": "58176", "city_code": "montigny aux amognes", "zip_code": "58130", "label": "montigny aux amognes", "latitude": "47.025418665", "longitude": "3.279291198", "department_name": "ni\u00e8vre", "department_number": "58", "region_name": "bourgogne-franche-comt\u00e9", "region_geojson_name": "Bourgogne-Franche-Comt\u00e9"}, {"insee_code": "58180", "city_code": "montsauche les settons", "zip_code": "58230", "label": "montsauche les settons", "latitude": "47.214293843", "longitude": "4.033132574", "department_name": "ni\u00e8vre", "department_number": "58", "region_name": "bourgogne-franche-comt\u00e9", "region_geojson_name": "Bourgogne-Franche-Comt\u00e9"}, {"insee_code": "58184", "city_code": "moussy", "zip_code": "58700", "label": "moussy", "latitude": "47.196501089", "longitude": "3.458811837", "department_name": "ni\u00e8vre", "department_number": "58", "region_name": "bourgogne-franche-comt\u00e9", "region_geojson_name": "Bourgogne-Franche-Comt\u00e9"}, {"insee_code": "58193", "city_code": "neuvy sur loire", "zip_code": "58450", "label": "neuvy sur loire", "latitude": "47.532184059", "longitude": "2.890145485", "department_name": "ni\u00e8vre", "department_number": "58", "region_name": "bourgogne-franche-comt\u00e9", "region_geojson_name": "Bourgogne-Franche-Comt\u00e9"}, {"insee_code": "58207", "city_code": "parigny les vaux", "zip_code": "58320", "label": "parigny les vaux", "latitude": "47.100804556", "longitude": "3.14618141", "department_name": "ni\u00e8vre", "department_number": "58", "region_name": "bourgogne-franche-comt\u00e9", "region_geojson_name": "Bourgogne-Franche-Comt\u00e9"}, {"insee_code": "58209", "city_code": "perroy", "zip_code": "58220", "label": "perroy", "latitude": "47.404986749", "longitude": "3.164677484", "department_name": "ni\u00e8vre", "department_number": "58", "region_name": "bourgogne-franche-comt\u00e9", "region_geojson_name": "Bourgogne-Franche-Comt\u00e9"}, {"insee_code": "58213", "city_code": "pougny", "zip_code": "58200", "label": "pougny", "latitude": "47.393831753", "longitude": "3.023949976", "department_name": "ni\u00e8vre", "department_number": "58", "region_name": "bourgogne-franche-comt\u00e9", "region_geojson_name": "Bourgogne-Franche-Comt\u00e9"}
]
